[{"OBJECT_NAME":"STARLINK-34862","OBJECT_ID":"2025-175G","EPOCH":"2026-03-09T15:47:11.507712","MEAN_MOTION":15.05643312,"ECCENTRICITY":0.00033662,"INCLINATION":97.6019,"RA_OF_ASC_NODE":302.5954,"ARG_OF_PERICENTER":105.3218,"MEAN_ANOMALY":254.8381,"EPHEMERIS_TYPE":0,"CLASSIFICATION_TYPE":"U","NORAD_CAT_ID":65180,"ELEMENT_SET_NO":999,"REV_AT_EPOCH":3263,"BSTAR":-0.00015995431,"MEAN_MOTION_DOT":-2.368e-5,"MEAN_MOTION_DDOT":0},{"OBJECT_NAME":"PSLV DEB","OBJECT_ID":"2001-049NA","EPOCH":"2026-03-08T15:04:56.759808","MEAN_MOTION":15.08740413,"ECCENTRICITY":0.00254054,"INCLINATION":98.314,"RA_OF_ASC_NODE":131.3874,"ARG_OF_PERICENTER":357.4644,"MEAN_ANOMALY":2.6449,"EPHEMERIS_TYPE":0,"CLASSIFICATION_TYPE":"U","NORAD_CAT_ID":27582,"ELEMENT_SET_NO":999,"REV_AT_EPOCH":27774,"BSTAR":0.00086862236,"MEAN_MOTION_DOT":0.0001368,"MEAN_MOTION_DDOT":0}]
